HST                     
1 20580U 90037B   26068.15977042  .00009063  00000+0  30023-3 0  9999
2 20580  28.4717  43.6133 0001837 120.9992 239.0785 15.29473555773239
STARLINK-32239          
1 61892U 24204U   26068.56134543  .00000002  00000+0  12187-4 0  9995
2 61892  53.1597 127.9791 0001220  70.5548 289.5585 15.30189690 75071
